{
  "type": "FeatureCollection",
  "features": [
    {
      "type": "Feature",
      "properties": {
        "norad_id": 66573,
        "name": "STARLINK-35650",
        "group": "last-30-days",
        "lat": 12.35636143170366,
        "lon": 120.5155313645514,
        "alt_km": 412.145563786873,
        "timestamp": "2025-12-15T04:01:19.179724+00:00",
        "meta_object_name": "STARLINK-35650",
        "meta_object_id": "2025-268S",
        "meta_epoch": "2025-12-14T01:39:50.663232",
        "meta_mean_motion": 15.50566618,
        "meta_eccentricity": 7.82e-05,
        "meta_inclination": 42.9994,
        "meta_ra_of_asc_node": 113.345,
        "meta_arg_of_pericenter": 308.7789,
        "meta_mean_anomaly": 51.3001,
        "meta_ephemeris_type": 0,
        "meta_classification_type": "U",
        "meta_norad_cat_id": 66573,
        "meta_element_set_no": 999,
        "meta_rev_at_epoch": 483,
        "meta_bstar": 0.0018861975,
        "meta_mean_motion_dot": 0.00111857,
        "meta_mean_motion_ddot": 0,
        "tle_line1": "1 66573U 25268S   25348.06933638  .00111857  00000+0  18862-2 0  9999",
        "tle_line2": "2 66573  42.9994 113.3450 0000782 308.7789  51.3001 15.50566618  4830"
      },
      "geometry": {
        "type": "Point",
        "coordinates": [
          120.5155313645514,
          12.35636143170366
        ]
      }
    },
    {
      "type": "Feature",
      "properties": {
        "norad_id": 66574,
        "name": "STARLINK-35812",
        "group": "last-30-days",
        "lat": 13.67528825460634,
        "lon": 122.0505321924711,
        "alt_km": 412.0406170813985,
        "timestamp": "2025-12-15T04:01:19.179734+00:00",
        "meta_object_name": "STARLINK-35812",
        "meta_object_id": "2025-268T",
        "meta_epoch": "2025-12-14T01:39:20.923488",
        "meta_mean_motion": 15.50571155,
        "meta_eccentricity": 0.00014446,
        "meta_inclination": 42.9999,
        "meta_ra_of_asc_node": 113.3431,
        "meta_arg_of_pericenter": 286.1846,
        "meta_mean_anomaly": 73.8855,
        "meta_ephemeris_type": 0,
        "meta_classification_type": "U",
        "meta_norad_cat_id": 66574,
        "meta_element_set_no": 999,
        "meta_rev_at_epoch": 483,
        "meta_bstar": 0.002097662,
        "meta_mean_motion_dot": 0.00124662,
        "meta_mean_motion_ddot": 0,
        "tle_line1": "1 66574U 25268T   25348.06899217  .00124662  00000+0  20977-2 0  9992",
        "tle_line2": "2 66574  42.9999 113.3431 0001444 286.1846  73.8855 15.50571155  4832"
      },
      "geometry": {
        "type": "Point",
        "coordinates": [
          122.0505321924711,
          13.67528825460634
        ]
      }
    },
    {
      "type": "Feature",
      "properties": {
        "norad_id": 66575,
        "name": "STARLINK-35810",
        "group": "last-30-days",
        "lat": 14.924465933498453,
        "lon": 123.53037000925069,
        "alt_km": 411.86885128667564,
        "timestamp": "2025-12-15T04:01:19.179744+00:00",
        "meta_object_name": "STARLINK-35810",
        "meta_object_id": "2025-268U",
        "meta_epoch": "2025-12-14T01:38:51.479232",
        "meta_mean_motion": 15.50571534,
        "meta_eccentricity": 7.343e-05,
        "meta_inclination": 42.9994,
        "meta_ra_of_asc_node": 113.3403,
        "meta_arg_of_pericenter": 288.2643,
        "meta_mean_anomaly": 71.8137,
        "meta_ephemeris_type": 0,
        "meta_classification_type": "U",
        "meta_norad_cat_id": 66575,
        "meta_element_set_no": 999,
        "meta_rev_at_epoch": 483,
        "meta_bstar": 0.0020886687,
        "meta_mean_motion_dot": 0.00124118,
        "meta_mean_motion_ddot": 0,
        "tle_line1": "1 66575U 25268U   25348.06865138  .00124118  00000+0  20887-2 0  9994",
        "tle_line2": "2 66575  42.9994 113.3403 0000734 288.2643  71.8137 15.50571534  4838"
      },
      "geometry": {
        "type": "Point",
        "coordinates": [
          123.53037000925069,
          14.924465933498453
        ]
      }
    },
    {
      "type": "Feature",
      "properties": {
        "norad_id": 66576,
        "name": "STARLINK-35814",
        "group": "last-30-days",
        "lat": 16.187480689129263,
        "lon": 125.05610972476396,
        "alt_km": 411.8221692612733,
        "timestamp": "2025-12-15T04:01:19.179754+00:00",
        "meta_object_name": "STARLINK-35814",
        "meta_object_id": "2025-268V",
        "meta_epoch": "2025-12-14T01:38:21.809472",
        "meta_mean_motion": 15.50577135,
        "meta_eccentricity": 6.713e-05,
        "meta_inclination": 42.9992,
        "meta_ra_of_asc_node": 113.3375,
        "meta_arg_of_pericenter": 268.1794,
        "meta_mean_anomaly": 91.8989,
        "meta_ephemeris_type": 0,
        "meta_classification_type": "U",
        "meta_norad_cat_id": 66576,
        "meta_element_set_no": 999,
        "meta_rev_at_epoch": 483,
        "meta_bstar": 0.0020849721,
        "meta_mean_motion_dot": 0.0012392,
        "meta_mean_motion_ddot": 0,
        "tle_line1": "1 66576U 25268V   25348.06830798  .00123920  00000+0  20850-2 0  9999",
        "tle_line2": "2 66576  42.9992 113.3375 0000671 268.1794  91.8989 15.50577135  4839"
      },
      "geometry": {
        "type": "Point",
        "coordinates": [
          125.05610972476396,
          16.187480689129263
        ]
      }
    },
    {
      "type": "Feature",
      "properties": {
        "norad_id": 66577,
        "name": "STARLINK-35815",
        "group": "last-30-days",
        "lat": 17.37131257990856,
        "lon": 126.51647171008759,
        "alt_km": 410.9815440106113,
        "timestamp": "2025-12-15T04:01:19.179769+00:00",
        "meta_object_name": "STARLINK-35815",
        "meta_object_id": "2025-268W",
        "meta_epoch": "2025-12-14T01:37:52.474944",
        "meta_mean_motion": 15.50567436,
        "meta_eccentricity": 9.281e-05,
        "meta_inclination": 42.9989,
        "meta_ra_of_asc_node": 113.3346,
        "meta_arg_of_pericenter": 8.2351,
        "meta_mean_anomaly": 351.8524,
        "meta_ephemeris_type": 0,
        "meta_classification_type": "U",
        "meta_norad_cat_id": 66577,
        "meta_element_set_no": 999,
        "meta_rev_at_epoch": 483,
        "meta_bstar": 0.0019712973,
        "meta_mean_motion_dot": 0.00117,
        "meta_mean_motion_ddot": 0,
        "tle_line1": "1 66577U 25268W   25348.06796846  .00117000  00000+0  19713-2 0  9993",
        "tle_line2": "2 66577  42.9989 113.3346 0000928   8.2351 351.8524 15.50567436  4838"
      },
      "geometry": {
        "type": "Point",
        "coordinates": [
          126.51647171008759,
          17.37131257990856
        ]
      }
    },
    {
      "type": "Feature",
      "properties": {
        "norad_id": 66578,
        "name": "STARLINK-35743",
        "group": "last-30-days",
        "lat": 19.163528454602286,
        "lon": 128.78926984186995,
        "alt_km": 410.12920463661976,
        "timestamp": "2025-12-15T04:01:19.179779+00:00",
        "meta_object_name": "STARLINK-35743",
        "meta_object_id": "2025-268X",
        "meta_epoch": "2025-12-13T17:53:34.638720",
        "meta_mean_motion": 15.50625412,
        "meta_eccentricity": 0.00013233,
        "meta_inclination": 42.9997,
        "meta_ra_of_asc_node": 115.215,
        "meta_arg_of_pericenter": 330.5178,
        "meta_mean_anomaly": 29.5607,
        "meta_ephemeris_type": 0,
        "meta_classification_type": "U",
        "meta_norad_cat_id": 66578,
        "meta_element_set_no": 999,
        "meta_rev_at_epoch": 478,
        "meta_bstar": 0.0024358562,
        "meta_mean_motion_dot": 0.00145485,
        "meta_mean_motion_ddot": 0,
        "tle_line1": "1 66578U 25268X   25347.74553980  .00145485  00000+0  24359-2 0  9998",
        "tle_line2": "2 66578  42.9997 115.2150 0001323 330.5178  29.5607 15.50625412  4784"
      },
      "geometry": {
        "type": "Point",
        "coordinates": [
          128.78926984186995,
          19.163528454602286
        ]
      }
    },
    {
      "type": "Feature",
      "properties": {
        "norad_id": 66579,
        "name": "STARLINK-35868",
        "group": "last-30-days",
        "lat": 19.804276342681113,
        "lon": 129.62486604165812,
        "alt_km": 411.24492425067274,
        "timestamp": "2025-12-15T04:01:19.179789+00:00",
        "meta_object_name": "STARLINK-35868",
        "meta_object_id": "2025-268Y",
        "meta_epoch": "2025-12-14T01:36:52.892640",
        "meta_mean_motion": 15.50567958,
        "meta_eccentricity": 9.202e-05,
        "meta_inclination": 42.9993,
        "meta_ra_of_asc_node": 113.3295,
        "meta_arg_of_pericenter": 291.0176,
        "meta_mean_anomaly": 69.0586,
        "meta_ephemeris_type": 0,
        "meta_classification_type": "U",
        "meta_norad_cat_id": 66579,
        "meta_element_set_no": 999,
        "meta_rev_at_epoch": 483,
        "meta_bstar": 0.0018580379,
        "meta_mean_motion_dot": 0.00110163,
        "meta_mean_motion_ddot": 0,
        "tle_line1": "1 66579U 25268Y   25348.06727885  .00110163  00000+0  18580-2 0  9996",
        "tle_line2": "2 66579  42.9993 113.3295 0000920 291.0176  69.0586 15.50567958  4832"
      },
      "geometry": {
        "type": "Point",
        "coordinates": [
          129.62486604165812,
          19.804276342681113
        ]
      }
    }
  ]
}